[{"OBJECT_NAME":"ONEWEB-0367","OBJECT_ID":"2021-090Q","EPOCH":"2026-01-28T16:40:29.797248","MEAN_MOTION":13.20774237,"ECCENTRICITY":0.00015243,"INCLINATION":87.9229,"RA_OF_ASC_NODE":302.2729,"ARG_OF_PERICENTER":73.6973,"MEAN_ANOMALY":286.4328,"EPHEMERIS_TYPE":0,"CLASSIFICATION_TYPE":"U","NORAD_CAT_ID":49293,"ELEMENT_SET_NO":999,"REV_AT_EPOCH":21141,"BSTAR":0.00017857329,"MEAN_MOTION_DOT":8.6e-7,"MEAN_MOTION_DDOT":0},{"OBJECT_NAME":"ONEWEB-0368","OBJECT_ID":"2021-090R","EPOCH":"2026-01-28T17:50:56.397120","MEAN_MOTION":13.20774525,"ECCENTRICITY":0.00016851,"INCLINATION":87.9218,"RA_OF_ASC_NODE":302.2885,"ARG_OF_PERICENTER":49.2677,"MEAN_ANOMALY":310.8602,"EPHEMERIS_TYPE":0,"CLASSIFICATION_TYPE":"U","NORAD_CAT_ID":49294,"ELEMENT_SET_NO":999,"REV_AT_EPOCH":21257,"BSTAR":-0.00012192849,"MEAN_MOTION_DOT":-3.7e-7,"MEAN_MOTION_DDOT":0},{"OBJECT_NAME":"ONEWEB-0369","OBJECT_ID":"2021-090S","EPOCH":"2026-01-28T19:56:12.594912","MEAN_MOTION":13.19726794,"ECCENTRICITY":0.00017228,"INCLINATION":87.9244,"RA_OF_ASC_NODE":332.7129,"ARG_OF_PERICENTER":74.7369,"MEAN_ANOMALY":285.3954,"EPHEMERIS_TYPE":0,"CLASSIFICATION_TYPE":"U","NORAD_CAT_ID":49295,"ELEMENT_SET_NO":999,"REV_AT_EPOCH":20803,"BSTAR":7.4454256e-5,"MEAN_MOTION_DOT":4.3e-7,"MEAN_MOTION_DDOT":0},{"OBJECT_NAME":"ONEWEB-0370","OBJECT_ID":"2021-090T","EPOCH":"2026-01-28T16:54:10.377792","MEAN_MOTION":13.2078876,"ECCENTRICITY":0.00015109,"INCLINATION":87.9311,"RA_OF_ASC_NODE":302.2729,"ARG_OF_PERICENTER":92.5273,"MEAN_ANOMALY":267.6033,"EPHEMERIS_TYPE":0,"CLASSIFICATION_TYPE":"U","NORAD_CAT_ID":49296,"ELEMENT_SET_NO":999,"REV_AT_EPOCH":21145,"BSTAR":-0.0072647625,"MEAN_MOTION_DOT":-2.941e-5,"MEAN_MOTION_DDOT":0},{"OBJECT_NAME":"ONEWEB-0371","OBJECT_ID":"2021-090U","EPOCH":"2026-01-28T20:07:35.237856","MEAN_MOTION":13.19726787,"ECCENTRICITY":0.00016385,"INCLINATION":87.9241,"RA_OF_ASC_NODE":332.7009,"ARG_OF_PERICENTER":83.3859,"MEAN_ANOMALY":276.746,"EPHEMERIS_TYPE":0,"CLASSIFICATION_TYPE":"U","NORAD_CAT_ID":49297,"ELEMENT_SET_NO":999,"REV_AT_EPOCH":20807,"BSTAR":8.751912e-5,"MEAN_MOTION_DOT":4.8e-7,"MEAN_MOTION_DDOT":0},{"OBJECT_NAME":"ONEWEB-0372","OBJECT_ID":"2021-090V","EPOCH":"2026-01-28T18:27:07.820928","MEAN_MOTION":13.20772517,"ECCENTRICITY":0.00014883,"INCLINATION":87.9226,"RA_OF_ASC_NODE":302.2595,"ARG_OF_PERICENTER":75.1098,"MEAN_ANOMALY":285.02,"EPHEMERIS_TYPE":0,"CLASSIFICATION_TYPE":"U","NORAD_CAT_ID":49298,"ELEMENT_SET_NO":999,"REV_AT_EPOCH":21143,"BSTAR":2.0743241e-5,"MEAN_MOTION_DOT":2.1e-7,"MEAN_MOTION_DDOT":0},{"OBJECT_NAME":"ONEWEB-0373","OBJECT_ID":"2021-090W","EPOCH":"2026-01-28T17:16:51.045600","MEAN_MOTION":13.20771355,"ECCENTRICITY":0.00017179,"INCLINATION":87.9216,"RA_OF_ASC_NODE":302.2793,"ARG_OF_PERICENTER":78.5781,"MEAN_ANOMALY":281.5545,"EPHEMERIS_TYPE":0,"CLASSIFICATION_TYPE":"U","NORAD_CAT_ID":49299,"ELEMENT_SET_NO":999,"REV_AT_EPOCH":21261,"BSTAR":-0.00053024859,"MEAN_MOTION_DOT":-2.03e-6,"MEAN_MOTION_DDOT":0},{"OBJECT_NAME":"ONEWEB-0374","OBJECT_ID":"2021-090X","EPOCH":"2026-01-28T19:45:21.906144","MEAN_MOTION":13.14502373,"ECCENTRICITY":0.00020554,"INCLINATION":87.903,"RA_OF_ASC_NODE":317.4769,"ARG_OF_PERICENTER":65.3362,"MEAN_ANOMALY":294.7982,"EPHEMERIS_TYPE":0,"CLASSIFICATION_TYPE":"U","NORAD_CAT_ID":49300,"ELEMENT_SET_NO":999,"REV_AT_EPOCH":20925,"BSTAR":-0.00048447357,"MEAN_MOTION_DOT":-1.67e-6,"MEAN_MOTION_DDOT":0},{"OBJECT_NAME":"ONEWEB-0375","OBJECT_ID":"2021-090Y","EPOCH":"2026-01-28T16:58:41.965824","MEAN_MOTION":13.20771608,"ECCENTRICITY":0.00021628,"INCLINATION":87.9224,"RA_OF_ASC_NODE":302.2649,"ARG_OF_PERICENTER":73.2513,"MEAN_ANOMALY":286.8858,"EPHEMERIS_TYPE":0,"CLASSIFICATION_TYPE":"U","NORAD_CAT_ID":49301,"ELEMENT_SET_NO":999,"REV_AT_EPOCH":21211,"BSTAR":0.00019706675,"MEAN_MOTION_DOT":9.3e-7,"MEAN_MOTION_DDOT":0},{"OBJECT_NAME":"ONEWEB-0376","OBJECT_ID":"2021-090Z","EPOCH":"2026-01-28T20:05:17.892960","MEAN_MOTION":13.1972724,"ECCENTRICITY":0.0001463,"INCLINATION":87.9248,"RA_OF_ASC_NODE":332.6916,"ARG_OF_PERICENTER":81.3894,"MEAN_ANOMALY":278.7404,"EPHEMERIS_TYPE":0,"CLASSIFICATION_TYPE":"U","NORAD_CAT_ID":49302,"ELEMENT_SET_NO":999,"REV_AT_EPOCH":20807,"BSTAR":-0.00019084213,"MEAN_MOTION_DOT":-6.3e-7,"MEAN_MOTION_DDOT":0},{"OBJECT_NAME":"ONEWEB-0377","OBJECT_ID":"2021-090AA","EPOCH":"2026-01-28T20:16:37.248384","MEAN_MOTION":13.20772788,"ECCENTRICITY":0.00017393,"INCLINATION":87.9229,"RA_OF_ASC_NODE":302.2402,"ARG_OF_PERICENTER":80.6386,"MEAN_ANOMALY":279.4944,"EPHEMERIS_TYPE":0,"CLASSIFICATION_TYPE":"U","NORAD_CAT_ID":49303,"ELEMENT_SET_NO":999,"REV_AT_EPOCH":21212,"BSTAR":-5.0658136e-5,"MEAN_MOTION_DOT":-8.0e-8,"MEAN_MOTION_DDOT":0},{"OBJECT_NAME":"ONEWEB-0378","OBJECT_ID":"2021-090AB","EPOCH":"2026-01-28T17:10:14.091168","MEAN_MOTION":13.20771374,"ECCENTRICITY":0.00017593,"INCLINATION":87.9226,"RA_OF_ASC_NODE":302.2782,"ARG_OF_PERICENTER":74.3525,"MEAN_ANOMALY":285.7802,"EPHEMERIS_TYPE":0,"CLASSIFICATION_TYPE":"U","NORAD_CAT_ID":49304,"ELEMENT_SET_NO":999,"REV_AT_EPOCH":21137,"BSTAR":-0.00086506893,"MEAN_MOTION_DOT":-3.39e-6,"MEAN_MOTION_DDOT":0},{"OBJECT_NAME":"ONEWEB-0379","OBJECT_ID":"2021-090AC","EPOCH":"2026-01-28T19:38:30.577344","MEAN_MOTION":13.14501895,"ECCENTRICITY":0.00017313,"INCLINATION":87.9031,"RA_OF_ASC_NODE":317.4877,"ARG_OF_PERICENTER":75.6525,"MEAN_ANOMALY":284.4797,"EPHEMERIS_TYPE":0,"CLASSIFICATION_TYPE":"U","NORAD_CAT_ID":49305,"ELEMENT_SET_NO":999,"REV_AT_EPOCH":20925,"BSTAR":-0.00047036452,"MEAN_MOTION_DOT":-1.62e-6,"MEAN_MOTION_DDOT":0},{"OBJECT_NAME":"ONEWEB-0380","OBJECT_ID":"2021-090AD","EPOCH":"2026-01-28T20:00:45.091008","MEAN_MOTION":13.19727747,"ECCENTRICITY":0.00019821,"INCLINATION":87.9249,"RA_OF_ASC_NODE":332.7093,"ARG_OF_PERICENTER":82.5264,"MEAN_ANOMALY":277.6094,"EPHEMERIS_TYPE":0,"CLASSIFICATION_TYPE":"U","NORAD_CAT_ID":49306,"ELEMENT_SET_NO":999,"REV_AT_EPOCH":20804,"BSTAR":3.9044342e-5,"MEAN_MOTION_DOT":2.9e-7,"MEAN_MOTION_DDOT":0},{"OBJECT_NAME":"ONEWEB-0381","OBJECT_ID":"2021-090AE","EPOCH":"2026-01-28T18:22:45.734304","MEAN_MOTION":13.20777209,"ECCENTRICITY":0.00019365,"INCLINATION":87.9231,"RA_OF_ASC_NODE":302.2592,"ARG_OF_PERICENTER":71.7137,"MEAN_ANOMALY":288.4207,"EPHEMERIS_TYPE":0,"CLASSIFICATION_TYPE":"U","NORAD_CAT_ID":49307,"ELEMENT_SET_NO":999,"REV_AT_EPOCH":21142,"BSTAR":0.00065506885,"MEAN_MOTION_DOT":2.79e-6,"MEAN_MOTION_DDOT":0},{"OBJECT_NAME":"ONEWEB-0382","OBJECT_ID":"2021-090AF","EPOCH":"2026-01-28T18:04:35.110560","MEAN_MOTION":13.20773816,"ECCENTRICITY":0.00019398,"INCLINATION":87.9233,"RA_OF_ASC_NODE":302.2573,"ARG_OF_PERICENTER":67.8165,"MEAN_ANOMALY":292.3174,"EPHEMERIS_TYPE":0,"CLASSIFICATION_TYPE":"U","NORAD_CAT_ID":49308,"ELEMENT_SET_NO":999,"REV_AT_EPOCH":21141,"BSTAR":7.97887e-7,"MEAN_MOTION_DOT":1.3e-7,"MEAN_MOTION_DDOT":0}]
