ONEWEB-0367             
1 49293U 21090Q   26028.69478932  .00000086  00000+0  17857-3 0  9999
2 49293  87.9229 302.2729 0001524  73.6973 286.4328 13.20774237211416
ONEWEB-0368             
1 49294U 21090R   26028.74370830 -.00000037  00000+0 -12193-3 0  9990
2 49294  87.9218 302.2885 0001685  49.2677 310.8602 13.20774525212571
ONEWEB-0369             
1 49295U 21090S   26028.83070133  .00000043  00000+0  74454-4 0  9998
2 49295  87.9244 332.7129 0001722  74.7369 285.3954 13.19726794208038
ONEWEB-0370             
1 49296U 21090T   26028.70428678 -.00002941  00000+0 -72648-2 0  9998
2 49296  87.9311 302.2729 0001510  92.5273 267.6033 13.20788760211453
ONEWEB-0371             
1 49297U 21090U   26028.83860229  .00000048  00000+0  87519-4 0  9994
2 49297  87.9241 332.7009 0001638  83.3859 276.7460 13.19726787208072
ONEWEB-0372             
1 49298U 21090V   26028.76884052  .00000021  00000+0  20743-4 0  9994
2 49298  87.9226 302.2595 0001488  75.1098 285.0200 13.20772517211438
ONEWEB-0373             
1 49299U 21090W   26028.72003525 -.00000203  00000+0 -53025-3 0  9991
2 49299  87.9216 302.2793 0001717  78.5781 281.5545 13.20771355212612
ONEWEB-0374             
1 49300U 21090X   26028.82317021 -.00000167  00000+0 -48447-3 0  9995
2 49300  87.9030 317.4769 0002055  65.3362 294.7982 13.14502373209257
ONEWEB-0375             
1 49301U 21090Y   26028.70743016  .00000093  00000+0  19707-3 0  9993
2 49301  87.9224 302.2649 0002162  73.2513 286.8858 13.20771608212116
ONEWEB-0376             
1 49302U 21090Z   26028.83701265 -.00000063  00000+0 -19084-3 0  9995
2 49302  87.9248 332.6916 0001463  81.3894 278.7404 13.19727240208070
ONEWEB-0377             
1 49303U 21090AA  26028.84487556 -.00000008  00000+0 -50658-4 0  9993
2 49303  87.9229 302.2402 0001739  80.6386 279.4944 13.20772788212124
ONEWEB-0378             
1 49304U 21090AB  26028.71544087 -.00000339  00000+0 -86507-3 0  9991
2 49304  87.9226 302.2782 0001759  74.3525 285.7802 13.20771374211379
ONEWEB-0379             
1 49305U 21090AC  26028.81840946 -.00000162  00000+0 -47036-3 0  9994
2 49305  87.9031 317.4877 0001731  75.6525 284.4797 13.14501895209256
ONEWEB-0380             
1 49306U 21090AD  26028.83385522  .00000029  00000+0  39044-4 0  9992
2 49306  87.9249 332.7093 0001982  82.5264 277.6094 13.19727747208044
ONEWEB-0381             
1 49307U 21090AE  26028.76580711  .00000279  00000+0  65507-3 0  9991
2 49307  87.9231 302.2592 0001936  71.7137 288.4207 13.20777209211422
ONEWEB-0382             
1 49308U 21090AF  26028.75318415  .00000013  00000+0  79789-6 0  9997
2 49308  87.9233 302.2573 0001939  67.8165 292.3174 13.20773816211410
